NOAA 18                 
1 28654U 05018A   25006.88073240  .00000470  00000+0  27325-3 0  9996
2 28654  98.8580  88.0152 0013976 202.1444 157.9126 14.13479687 11959
